COSMOS 2251 DEB         
1 34474U 93036TT  17345.93742160  .00000809  00000-0  51444-3 0  9993
2 34474  74.0821 306.9649 0229863   0.6046  57.0242 13.93138925447020
